STARLINK-31027          
1 58720U 24002R   25235.82536482  .00014282  00000+0  48665-3 0  9993
2 58720  53.1574  68.8356 0001594  77.4572 282.6607 15.30648090 91722
STARLINK-30972          
1 58721U 24002S   25235.83162873  .00000174  00000+0  17998-4 0  9995
2 58721  53.1598  68.8718 0001081  83.1517 276.9607 15.30201767 91727
STARLINK-31040          
1 58722U 24002T   25235.91383090  .00000103  00000+0  15599-4 0  9998
2 58722  53.1605  68.6709 0001175  90.0114 270.1022 15.30192730 91736
STARLINK-31033          
1 58723U 24002U   25235.83901892  .00000101  00000+0  15535-4 0  9994
2 58723  53.1606  68.9152 0001193  91.4751 268.6386 15.30197494 91721
STARLINK-30893          
1 58724U 24002V   25235.86118290 -.00000362  00000+0 -10625-6 0  9998
2 58724  53.1607  69.0634 0001125  94.3397 265.7733 15.30190302 91717
STARLINK-30856          
1 58725U 24002W   25235.86223414  .00000744  00000+0  37256-4 0  9993
2 58725  53.1608  69.0631 0001218  95.8149 264.2990 15.30187699 91725
STARLINK-31115          
1 58729U 24005B   25235.63533343  .00000085  00000+0  21358-4 0  9994
2 58729  43.0025 217.4048 0001346 285.0711  74.9982 15.02536519 90624
STARLINK-31204          
1 58731U 24005D   25235.91670139  .00365579  00000+0  37429-2 0  9999
2 58731  42.9891 163.3634 0024759 195.2072  21.7046 15.62694744  5810
STARLINK-31180          
1 58732U 24005E   25235.66197412  .00000124  00000+0  24282-4 0  9997
2 58732  43.0030 217.6132 0001384 268.8053  91.2631 15.02533203 90620
STARLINK-31164          
1 58733U 24005F   25235.43268906  .00000191  00000+0  29242-4 0  9995
2 58733  43.0024 219.3223 0001207 274.9354  85.1351 15.02531518 90583
STARLINK-31152          
1 58734U 24005G   25235.29640748  .00001424  00000+0  12043-3 0  9998
2 58734  43.0013 220.0175 0000851 278.7987  81.2759 15.02539200 90579
STARLINK-31157          
1 58735U 24005H   25235.29307232  .00000406  00000+0  45116-4 0  9994
2 58735  43.0019 219.9933 0001219 299.8449  60.2272 15.02533663 90575
STARLINK-31076          
1 58736U 24005J   25235.22326287  .00000121  00000+0  24023-4 0  9997
2 58736  43.0023 220.3285 0001155 280.7730  79.2982 15.02536386 90605
STARLINK-31101          
1 58737U 24005K   25235.68196746  .00001734  00000+0  14344-3 0  9998
2 58737  43.0093 217.7515 0002962 270.9977  89.0526 15.02526224 90625
STARLINK-31108          
1 58738U 24005L   25235.68528035  .00000288  00000+0  36376-4 0  9992
2 58738  43.0017 217.7750 0001602 276.9550  83.1110 15.02537596 90624
STARLINK-31042          
1 58739U 24005M   25235.67862009 -.00000006  00000+0  14616-4 0  9996
2 58739  43.0015 217.7243 0001533 257.4911 102.5760 15.02533438 90637
