[{"OBJECT_NAME":"STARLINK-31027","OBJECT_ID":"2024-002R","EPOCH":"2025-08-23T19:48:31.520448","MEAN_MOTION":15.3064809,"ECCENTRICITY":0.00015944,"INCLINATION":53.1574,"RA_OF_ASC_NODE":68.8356,"ARG_OF_PERICENTER":77.4572,"MEAN_ANOMALY":282.6607,"EPHEMERIS_TYPE":0,"CLASSIFICATION_TYPE":"U","NORAD_CAT_ID":58720,"ELEMENT_SET_NO":999,"REV_AT_EPOCH":9172,"BSTAR":0.00048664893,"MEAN_MOTION_DOT":0.00014282,"MEAN_MOTION_DDOT":0},{"OBJECT_NAME":"STARLINK-30972","OBJECT_ID":"2024-002S","EPOCH":"2025-08-23T19:57:32.722272","MEAN_MOTION":15.30201767,"ECCENTRICITY":0.00010818,"INCLINATION":53.1598,"RA_OF_ASC_NODE":68.8718,"ARG_OF_PERICENTER":83.1517,"MEAN_ANOMALY":276.9607,"EPHEMERIS_TYPE":0,"CLASSIFICATION_TYPE":"U","NORAD_CAT_ID":58721,"ELEMENT_SET_NO":999,"REV_AT_EPOCH":9172,"BSTAR":1.7998289e-5,"MEAN_MOTION_DOT":1.74e-6,"MEAN_MOTION_DDOT":0},{"OBJECT_NAME":"STARLINK-31040","OBJECT_ID":"2024-002T","EPOCH":"2025-08-23T21:55:54.989760","MEAN_MOTION":15.3019273,"ECCENTRICITY":0.00011757,"INCLINATION":53.1605,"RA_OF_ASC_NODE":68.6709,"ARG_OF_PERICENTER":90.0114,"MEAN_ANOMALY":270.1022,"EPHEMERIS_TYPE":0,"CLASSIFICATION_TYPE":"U","NORAD_CAT_ID":58722,"ELEMENT_SET_NO":999,"REV_AT_EPOCH":9173,"BSTAR":1.5598993e-5,"MEAN_MOTION_DOT":1.03e-6,"MEAN_MOTION_DDOT":0},{"OBJECT_NAME":"STARLINK-31033","OBJECT_ID":"2024-002U","EPOCH":"2025-08-23T20:08:11.234688","MEAN_MOTION":15.30197494,"ECCENTRICITY":0.0001193,"INCLINATION":53.1606,"RA_OF_ASC_NODE":68.9152,"ARG_OF_PERICENTER":91.4751,"MEAN_ANOMALY":268.6386,"EPHEMERIS_TYPE":0,"CLASSIFICATION_TYPE":"U","NORAD_CAT_ID":58723,"ELEMENT_SET_NO":999,"REV_AT_EPOCH":9172,"BSTAR":1.5534706e-5,"MEAN_MOTION_DOT":1.01e-6,"MEAN_MOTION_DDOT":0},{"OBJECT_NAME":"STARLINK-30893","OBJECT_ID":"2024-002V","EPOCH":"2025-08-23T20:40:06.202560","MEAN_MOTION":15.30190302,"ECCENTRICITY":0.00011255,"INCLINATION":53.1607,"RA_OF_ASC_NODE":69.0634,"ARG_OF_PERICENTER":94.3397,"MEAN_ANOMALY":265.7733,"EPHEMERIS_TYPE":0,"CLASSIFICATION_TYPE":"U","NORAD_CAT_ID":58724,"ELEMENT_SET_NO":999,"REV_AT_EPOCH":9171,"BSTAR":-1.06247e-7,"MEAN_MOTION_DOT":-3.62e-6,"MEAN_MOTION_DDOT":0},{"OBJECT_NAME":"STARLINK-30856","OBJECT_ID":"2024-002W","EPOCH":"2025-08-23T20:41:37.029696","MEAN_MOTION":15.30187699,"ECCENTRICITY":0.00012186,"INCLINATION":53.1608,"RA_OF_ASC_NODE":69.0631,"ARG_OF_PERICENTER":95.8149,"MEAN_ANOMALY":264.299,"EPHEMERIS_TYPE":0,"CLASSIFICATION_TYPE":"U","NORAD_CAT_ID":58725,"ELEMENT_SET_NO":999,"REV_AT_EPOCH":9172,"BSTAR":3.7255933e-5,"MEAN_MOTION_DOT":7.44e-6,"MEAN_MOTION_DDOT":0},{"OBJECT_NAME":"STARLINK-31115","OBJECT_ID":"2024-005B","EPOCH":"2025-08-23T15:14:52.808352","MEAN_MOTION":15.02536519,"ECCENTRICITY":0.00013463,"INCLINATION":43.0025,"RA_OF_ASC_NODE":217.4048,"ARG_OF_PERICENTER":285.0711,"MEAN_ANOMALY":74.9982,"EPHEMERIS_TYPE":0,"CLASSIFICATION_TYPE":"U","NORAD_CAT_ID":58729,"ELEMENT_SET_NO":999,"REV_AT_EPOCH":9062,"BSTAR":2.1357902e-5,"MEAN_MOTION_DOT":8.5e-7,"MEAN_MOTION_DDOT":0},{"OBJECT_NAME":"STARLINK-31204","OBJECT_ID":"2024-005D","EPOCH":"2025-08-23T22:00:03.000096","MEAN_MOTION":15.62694744,"ECCENTRICITY":0.00247594,"INCLINATION":42.9891,"RA_OF_ASC_NODE":163.3634,"ARG_OF_PERICENTER":195.2072,"MEAN_ANOMALY":21.7046,"EPHEMERIS_TYPE":0,"CLASSIFICATION_TYPE":"U","NORAD_CAT_ID":58731,"ELEMENT_SET_NO":999,"REV_AT_EPOCH":581,"BSTAR":0.0037429296,"MEAN_MOTION_DOT":0.00365579,"MEAN_MOTION_DDOT":0},{"OBJECT_NAME":"STARLINK-31180","OBJECT_ID":"2024-005E","EPOCH":"2025-08-23T15:53:14.563968","MEAN_MOTION":15.02533203,"ECCENTRICITY":0.00013846,"INCLINATION":43.003,"RA_OF_ASC_NODE":217.6132,"ARG_OF_PERICENTER":268.8053,"MEAN_ANOMALY":91.2631,"EPHEMERIS_TYPE":0,"CLASSIFICATION_TYPE":"U","NORAD_CAT_ID":58732,"ELEMENT_SET_NO":999,"REV_AT_EPOCH":9062,"BSTAR":2.4282132e-5,"MEAN_MOTION_DOT":1.24e-6,"MEAN_MOTION_DDOT":0},{"OBJECT_NAME":"STARLINK-31164","OBJECT_ID":"2024-005F","EPOCH":"2025-08-23T10:23:04.334784","MEAN_MOTION":15.02531518,"ECCENTRICITY":0.00012075,"INCLINATION":43.0024,"RA_OF_ASC_NODE":219.3223,"ARG_OF_PERICENTER":274.9354,"MEAN_ANOMALY":85.1351,"EPHEMERIS_TYPE":0,"CLASSIFICATION_TYPE":"U","NORAD_CAT_ID":58733,"ELEMENT_SET_NO":999,"REV_AT_EPOCH":9058,"BSTAR":2.9241647e-5,"MEAN_MOTION_DOT":1.91e-6,"MEAN_MOTION_DDOT":0},{"OBJECT_NAME":"STARLINK-31152","OBJECT_ID":"2024-005G","EPOCH":"2025-08-23T07:06:49.606272","MEAN_MOTION":15.025392,"ECCENTRICITY":8.513e-5,"INCLINATION":43.0013,"RA_OF_ASC_NODE":220.0175,"ARG_OF_PERICENTER":278.7987,"MEAN_ANOMALY":81.2759,"EPHEMERIS_TYPE":0,"CLASSIFICATION_TYPE":"U","NORAD_CAT_ID":58734,"ELEMENT_SET_NO":999,"REV_AT_EPOCH":9057,"BSTAR":0.00012042515,"MEAN_MOTION_DOT":1.424e-5,"MEAN_MOTION_DDOT":0},{"OBJECT_NAME":"STARLINK-31157","OBJECT_ID":"2024-005H","EPOCH":"2025-08-23T07:02:01.448448","MEAN_MOTION":15.02533663,"ECCENTRICITY":0.00012198,"INCLINATION":43.0019,"RA_OF_ASC_NODE":219.9933,"ARG_OF_PERICENTER":299.8449,"MEAN_ANOMALY":60.2272,"EPHEMERIS_TYPE":0,"CLASSIFICATION_TYPE":"U","NORAD_CAT_ID":58735,"ELEMENT_SET_NO":999,"REV_AT_EPOCH":9057,"BSTAR":4.5115691e-5,"MEAN_MOTION_DOT":4.06e-6,"MEAN_MOTION_DDOT":0},{"OBJECT_NAME":"STARLINK-31076","OBJECT_ID":"2024-005J","EPOCH":"2025-08-23T05:21:29.911968","MEAN_MOTION":15.02536386,"ECCENTRICITY":0.00011559,"INCLINATION":43.0023,"RA_OF_ASC_NODE":220.3285,"ARG_OF_PERICENTER":280.773,"MEAN_ANOMALY":79.2982,"EPHEMERIS_TYPE":0,"CLASSIFICATION_TYPE":"U","NORAD_CAT_ID":58736,"ELEMENT_SET_NO":999,"REV_AT_EPOCH":9060,"BSTAR":2.402267e-5,"MEAN_MOTION_DOT":1.21e-6,"MEAN_MOTION_DDOT":0},{"OBJECT_NAME":"STARLINK-31101","OBJECT_ID":"2024-005K","EPOCH":"2025-08-23T16:22:01.988544","MEAN_MOTION":15.02526224,"ECCENTRICITY":0.00029624,"INCLINATION":43.0093,"RA_OF_ASC_NODE":217.7515,"ARG_OF_PERICENTER":270.9977,"MEAN_ANOMALY":89.0526,"EPHEMERIS_TYPE":0,"CLASSIFICATION_TYPE":"U","NORAD_CAT_ID":58737,"ELEMENT_SET_NO":999,"REV_AT_EPOCH":9062,"BSTAR":0.00014343638,"MEAN_MOTION_DOT":1.734e-5,"MEAN_MOTION_DDOT":0},{"OBJECT_NAME":"STARLINK-31108","OBJECT_ID":"2024-005L","EPOCH":"2025-08-23T16:26:48.222240","MEAN_MOTION":15.02537596,"ECCENTRICITY":0.00016024,"INCLINATION":43.0017,"RA_OF_ASC_NODE":217.775,"ARG_OF_PERICENTER":276.955,"MEAN_ANOMALY":83.111,"EPHEMERIS_TYPE":0,"CLASSIFICATION_TYPE":"U","NORAD_CAT_ID":58738,"ELEMENT_SET_NO":999,"REV_AT_EPOCH":9062,"BSTAR":3.6375943e-5,"MEAN_MOTION_DOT":2.88e-6,"MEAN_MOTION_DDOT":0},{"OBJECT_NAME":"STARLINK-31042","OBJECT_ID":"2024-005M","EPOCH":"2025-08-23T16:17:12.775776","MEAN_MOTION":15.02533438,"ECCENTRICITY":0.00015334,"INCLINATION":43.0015,"RA_OF_ASC_NODE":217.7243,"ARG_OF_PERICENTER":257.4911,"MEAN_ANOMALY":102.576,"EPHEMERIS_TYPE":0,"CLASSIFICATION_TYPE":"U","NORAD_CAT_ID":58739,"ELEMENT_SET_NO":999,"REV_AT_EPOCH":9063,"BSTAR":1.4616429e-5,"MEAN_MOTION_DOT":-6.0e-8,"MEAN_MOTION_DDOT":0}]
